STARLINK-36309          
1 68325U 26059E   26093.59840074  .00492470  00000+0  23236-2 0  9996
2 68325  53.1607 238.0229 0001140 259.4032 100.6863 15.81202489  1910
STARLINK-37206          
1 68326U 26059F   26093.59765008  .00570279  00000+0  27081-2 0  9996
2 68326  53.1596 238.0176 0000247 150.1868 209.9169 15.80854695  1913
STARLINK-37199          
1 68327U 26059G   26093.66010486  .00552241  00000+0  26122-2 0  9992
2 68327  53.1599 237.6959 0003290  96.8141 263.3256 15.80993162  1927
STARLINK-36245          
1 68328U 26059H   26093.59540238  .00492088  00000+0  23610-2 0  9999
2 68328  53.1604 238.0027 0000937  40.7687 319.3406 15.80838251  1919
STARLINK-37204          
1 68329U 26059J   26093.59614845  .00280758  00000+0  13822-2 0  9999
2 68329  53.1596 238.0080 0000917  84.4544 275.6583 15.80841263  1911
STARLINK-37001          
1 68330U 26059K   26093.59464328  .00313874  00000+0  15362-2 0  9997
2 68330  53.1600 237.9978 0000736 130.8407 229.2680 15.80878638  1915
STARLINK-36932          
1 68331U 26059L   26093.53066910  .00242457  00000+0  11974-2 0  9990
2 68331  53.1599 238.3089 0001190 112.0712 248.0438 15.80880246  1904
STARLINK-37205          
1 68332U 26059M   26093.59314527  .00406504  00000+0  19701-2 0  9998
2 68332  53.1607 237.9875 0001536  38.0877 322.0254 15.80846716  1910
STARLINK-37180          
1 68333U 26059N   26093.59239568  .00222540  00000+0  11036-2 0  9999
2 68333  53.1599 237.9818 0001216 143.3732 216.7374 15.80844797  1912
STARLINK-37191          
1 68334U 26059P   26093.59164252  .00339754  00000+0  16565-2 0  9995
2 68334  53.1599 237.9771 0002064 155.8434 204.2686 15.80894204  1916
STARLINK-37217          
1 68335U 26059Q   26093.52766299  .00503520  00000+0  24009-2 0  9994
2 68335  53.1596 238.2890 0000319 157.6227 202.4810 15.80941936  1904
STARLINK-37143          
1 68336U 26059R   26093.59014643  .00212561  00000+0  10565-2 0  9995
2 68336  53.1601 237.9673 0001212 144.2868 215.8236 15.80824418  1919
