CCSDS_OMM_VERS = 2.0
CREATION_DATE  = 
ORIGINATOR     = 

OBJECT_NAME    = STARLINK-36309
OBJECT_ID      = 2026-059E
CENTER_NAME    = EARTH
REF_FRAME      = TEME
TIME_SYSTEM    = UTC
MEAN_ELEMENT_THEORY = SGP/SGP4

EPOCH          = 2026-04-03T14:21:41.823936
MEAN_MOTION    = 15.81202489
ECCENTRICITY   = .00011406
INCLINATION    = 53.1607
RA_OF_ASC_NODE = 238.0229
ARG_OF_PERICENTER = 259.4032
MEAN_ANOMALY   = 100.6863

EPHEMERIS_TYPE = 0
CLASSIFICATION_TYPE = U
NORAD_CAT_ID   = 68325
ELEMENT_SET_NO = 999
REV_AT_EPOCH   = 191
BSTAR          = .23235887E-2
MEAN_MOTION_DOT = .49247E-2
MEAN_MOTION_DDOT = 0

CCSDS_OMM_VERS = 2.0
CREATION_DATE  = 
ORIGINATOR     = 

OBJECT_NAME    = STARLINK-37206
OBJECT_ID      = 2026-059F
CENTER_NAME    = EARTH
REF_FRAME      = TEME
TIME_SYSTEM    = UTC
MEAN_ELEMENT_THEORY = SGP/SGP4

EPOCH          = 2026-04-03T14:20:36.966912
MEAN_MOTION    = 15.80854695
ECCENTRICITY   = .00002479
INCLINATION    = 53.1596
RA_OF_ASC_NODE = 238.0176
ARG_OF_PERICENTER = 150.1868
MEAN_ANOMALY   = 209.9169

EPHEMERIS_TYPE = 0
CLASSIFICATION_TYPE = U
NORAD_CAT_ID   = 68326
ELEMENT_SET_NO = 999
REV_AT_EPOCH   = 191
BSTAR          = .27081327E-2
MEAN_MOTION_DOT = .570279E-2
MEAN_MOTION_DDOT = 0

CCSDS_OMM_VERS = 2.0
CREATION_DATE  = 
ORIGINATOR     = 

OBJECT_NAME    = STARLINK-37199
OBJECT_ID      = 2026-059G
CENTER_NAME    = EARTH
REF_FRAME      = TEME
TIME_SYSTEM    = UTC
MEAN_ELEMENT_THEORY = SGP/SGP4

EPOCH          = 2026-04-03T15:50:33.059904
MEAN_MOTION    = 15.80993162
ECCENTRICITY   = .00032905
INCLINATION    = 53.1599
RA_OF_ASC_NODE = 237.6959
ARG_OF_PERICENTER = 96.8141
MEAN_ANOMALY   = 263.3256

EPHEMERIS_TYPE = 0
CLASSIFICATION_TYPE = U
NORAD_CAT_ID   = 68327
ELEMENT_SET_NO = 999
REV_AT_EPOCH   = 192
BSTAR          = .26122007E-2
MEAN_MOTION_DOT = .552241E-2
MEAN_MOTION_DDOT = 0

CCSDS_OMM_VERS = 2.0
CREATION_DATE  = 
ORIGINATOR     = 

OBJECT_NAME    = STARLINK-36245
OBJECT_ID      = 2026-059H
CENTER_NAME    = EARTH
REF_FRAME      = TEME
TIME_SYSTEM    = UTC
MEAN_ELEMENT_THEORY = SGP/SGP4

EPOCH          = 2026-04-03T14:17:22.765632
MEAN_MOTION    = 15.80838251
ECCENTRICITY   = .00009379
INCLINATION    = 53.1604
RA_OF_ASC_NODE = 238.0027
ARG_OF_PERICENTER = 40.7687
MEAN_ANOMALY   = 319.3406

EPHEMERIS_TYPE = 0
CLASSIFICATION_TYPE = U
NORAD_CAT_ID   = 68328
ELEMENT_SET_NO = 999
REV_AT_EPOCH   = 191
BSTAR          = .2361021E-2
MEAN_MOTION_DOT = .492088E-2
MEAN_MOTION_DDOT = 0

CCSDS_OMM_VERS = 2.0
CREATION_DATE  = 
ORIGINATOR     = 

OBJECT_NAME    = STARLINK-37204
OBJECT_ID      = 2026-059J
CENTER_NAME    = EARTH
REF_FRAME      = TEME
TIME_SYSTEM    = UTC
MEAN_ELEMENT_THEORY = SGP/SGP4

EPOCH          = 2026-04-03T14:18:27.226080
MEAN_MOTION    = 15.80841263
ECCENTRICITY   = .00009178
INCLINATION    = 53.1596
RA_OF_ASC_NODE = 238.0080
ARG_OF_PERICENTER = 84.4544
MEAN_ANOMALY   = 275.6583

EPHEMERIS_TYPE = 0
CLASSIFICATION_TYPE = U
NORAD_CAT_ID   = 68329
ELEMENT_SET_NO = 999
REV_AT_EPOCH   = 191
BSTAR          = .13822376E-2
MEAN_MOTION_DOT = .280758E-2
MEAN_MOTION_DDOT = 0

CCSDS_OMM_VERS = 2.0
CREATION_DATE  = 
ORIGINATOR     = 

OBJECT_NAME    = STARLINK-37001
OBJECT_ID      = 2026-059K
CENTER_NAME    = EARTH
REF_FRAME      = TEME
TIME_SYSTEM    = UTC
MEAN_ELEMENT_THEORY = SGP/SGP4

EPOCH          = 2026-04-03T14:16:17.179392
MEAN_MOTION    = 15.80878638
ECCENTRICITY   = .00007366
INCLINATION    = 53.1600
RA_OF_ASC_NODE = 237.9978
ARG_OF_PERICENTER = 130.8407
MEAN_ANOMALY   = 229.2680

EPHEMERIS_TYPE = 0
CLASSIFICATION_TYPE = U
NORAD_CAT_ID   = 68330
ELEMENT_SET_NO = 999
REV_AT_EPOCH   = 191
BSTAR          = .15362301E-2
MEAN_MOTION_DOT = .313874E-2
MEAN_MOTION_DDOT = 0

CCSDS_OMM_VERS = 2.0
CREATION_DATE  = 
ORIGINATOR     = 

OBJECT_NAME    = STARLINK-36932
OBJECT_ID      = 2026-059L
CENTER_NAME    = EARTH
REF_FRAME      = TEME
TIME_SYSTEM    = UTC
MEAN_ELEMENT_THEORY = SGP/SGP4

EPOCH          = 2026-04-03T12:44:09.810240
MEAN_MOTION    = 15.80880246
ECCENTRICITY   = .000119
INCLINATION    = 53.1599
RA_OF_ASC_NODE = 238.3089
ARG_OF_PERICENTER = 112.0712
MEAN_ANOMALY   = 248.0438

EPHEMERIS_TYPE = 0
CLASSIFICATION_TYPE = U
NORAD_CAT_ID   = 68331
ELEMENT_SET_NO = 999
REV_AT_EPOCH   = 190
BSTAR          = .11973679E-2
MEAN_MOTION_DOT = .242457E-2
MEAN_MOTION_DDOT = 0

CCSDS_OMM_VERS = 2.0
CREATION_DATE  = 
ORIGINATOR     = 

OBJECT_NAME    = STARLINK-37205
OBJECT_ID      = 2026-059M
CENTER_NAME    = EARTH
REF_FRAME      = TEME
TIME_SYSTEM    = UTC
MEAN_ELEMENT_THEORY = SGP/SGP4

EPOCH          = 2026-04-03T14:14:07.751328
MEAN_MOTION    = 15.80846716
ECCENTRICITY   = .00015369
INCLINATION    = 53.1607
RA_OF_ASC_NODE = 237.9875
ARG_OF_PERICENTER = 38.0877
MEAN_ANOMALY   = 322.0254

EPHEMERIS_TYPE = 0
CLASSIFICATION_TYPE = U
NORAD_CAT_ID   = 68332
ELEMENT_SET_NO = 999
REV_AT_EPOCH   = 191
BSTAR          = .19700581E-2
MEAN_MOTION_DOT = .406504E-2
MEAN_MOTION_DDOT = 0

CCSDS_OMM_VERS = 2.0
CREATION_DATE  = 
ORIGINATOR     = 

OBJECT_NAME    = STARLINK-37180
OBJECT_ID      = 2026-059N
CENTER_NAME    = EARTH
REF_FRAME      = TEME
TIME_SYSTEM    = UTC
MEAN_ELEMENT_THEORY = SGP/SGP4

EPOCH          = 2026-04-03T14:13:02.986752
MEAN_MOTION    = 15.80844797
ECCENTRICITY   = .0001216
INCLINATION    = 53.1599
RA_OF_ASC_NODE = 237.9818
ARG_OF_PERICENTER = 143.3732
MEAN_ANOMALY   = 216.7374

EPHEMERIS_TYPE = 0
CLASSIFICATION_TYPE = U
NORAD_CAT_ID   = 68333
ELEMENT_SET_NO = 999
REV_AT_EPOCH   = 191
BSTAR          = .11036493E-2
MEAN_MOTION_DOT = .22254E-2
MEAN_MOTION_DDOT = 0

CCSDS_OMM_VERS = 2.0
CREATION_DATE  = 
ORIGINATOR     = 

OBJECT_NAME    = STARLINK-37191
OBJECT_ID      = 2026-059P
CENTER_NAME    = EARTH
REF_FRAME      = TEME
TIME_SYSTEM    = UTC
MEAN_ELEMENT_THEORY = SGP/SGP4

EPOCH          = 2026-04-03T14:11:57.913728
MEAN_MOTION    = 15.80894204
ECCENTRICITY   = .00020646
INCLINATION    = 53.1599
RA_OF_ASC_NODE = 237.9771
ARG_OF_PERICENTER = 155.8434
MEAN_ANOMALY   = 204.2686

EPHEMERIS_TYPE = 0
CLASSIFICATION_TYPE = U
NORAD_CAT_ID   = 68334
ELEMENT_SET_NO = 999
REV_AT_EPOCH   = 191
BSTAR          = .16564514E-2
MEAN_MOTION_DOT = .339754E-2
MEAN_MOTION_DDOT = 0

CCSDS_OMM_VERS = 2.0
CREATION_DATE  = 
ORIGINATOR     = 

OBJECT_NAME    = STARLINK-37217
OBJECT_ID      = 2026-059Q
CENTER_NAME    = EARTH
REF_FRAME      = TEME
TIME_SYSTEM    = UTC
MEAN_ELEMENT_THEORY = SGP/SGP4

EPOCH          = 2026-04-03T12:39:50.082336
MEAN_MOTION    = 15.80941936
ECCENTRICITY   = .00003198
INCLINATION    = 53.1596
RA_OF_ASC_NODE = 238.2890
ARG_OF_PERICENTER = 157.6227
MEAN_ANOMALY   = 202.4810

EPHEMERIS_TYPE = 0
CLASSIFICATION_TYPE = U
NORAD_CAT_ID   = 68335
ELEMENT_SET_NO = 999
REV_AT_EPOCH   = 190
BSTAR          = .24008647E-2
MEAN_MOTION_DOT = .50352E-2
MEAN_MOTION_DDOT = 0

CCSDS_OMM_VERS = 2.0
CREATION_DATE  = 
ORIGINATOR     = 

OBJECT_NAME    = STARLINK-37143
OBJECT_ID      = 2026-059R
CENTER_NAME    = EARTH
REF_FRAME      = TEME
TIME_SYSTEM    = UTC
MEAN_ELEMENT_THEORY = SGP/SGP4

EPOCH          = 2026-04-03T14:09:48.651552
MEAN_MOTION    = 15.80824418
ECCENTRICITY   = .00012126
INCLINATION    = 53.1601
RA_OF_ASC_NODE = 237.9673
ARG_OF_PERICENTER = 144.2868
MEAN_ANOMALY   = 215.8236

EPHEMERIS_TYPE = 0
CLASSIFICATION_TYPE = U
NORAD_CAT_ID   = 68336
ELEMENT_SET_NO = 999
REV_AT_EPOCH   = 191
BSTAR          = .10565336E-2
MEAN_MOTION_DOT = .212561E-2
MEAN_MOTION_DDOT = 0

